[{"OBJECT_NAME":"JY1SAT (JO-97)","OBJECT_ID":"2018-099AX","EPOCH":"2026-03-09T16:28:19.890048","MEAN_MOTION":15.30302629,"ECCENTRICITY":0.00047232,"INCLINATION":97.4249,"RA_OF_ASC_NODE":131.3625,"ARG_OF_PERICENTER":256.6795,"MEAN_ANOMALY":103.3919,"EPHEMERIS_TYPE":0,"CLASSIFICATION_TYPE":"U","NORAD_CAT_ID":43803,"ELEMENT_SET_NO":999,"REV_AT_EPOCH":39839,"BSTAR":0.00060804308,"MEAN_MOTION_DOT":0.00017774,"MEAN_MOTION_DDOT":0},{"OBJECT_NAME":"STARLINK-32020","OBJECT_ID":"2024-124U","EPOCH":"2026-03-09T21:57:18.978336","MEAN_MOTION":15.30197755,"ECCENTRICITY":0.00010516,"INCLINATION":53.1592,"RA_OF_ASC_NODE":321.1997,"ARG_OF_PERICENTER":64.5119,"MEAN_ANOMALY":295.599,"EPHEMERIS_TYPE":0,"CLASSIFICATION_TYPE":"U","NORAD_CAT_ID":60201,"ELEMENT_SET_NO":999,"REV_AT_EPOCH":9433,"BSTAR":3.5522854e-5,"MEAN_MOTION_DOT":6.93e-6,"MEAN_MOTION_DDOT":0}]
